{"_default": { "26": {"norad_id": "39417", "name": "ZACUBE", "tle1": "1 39417U 13066B   26162.80818086  .00003114  00000-0  24384-3 0  9999", "tle2": "2 39417  97.8084 125.1158 0040240 266.5236  93.1385 15.01156095679920", "object_type": "PAYLOAD", "criticality_score": 9.0, "last_updated": "2026-06-12T12:52:23.908888+00:00", "maneuver_count": 0, "owner": "N/A"}, "27": {"norad_id": "39161", "name": "ESTCUBE 1", "tle1": "1 39161U 13021C   26162.65598174  .00001403  00000-0  18577-3 0  9998", "tle2": "2 39161  97.7296 217.0355 0009059  42.0052 318.1855 14.81384281704205", "object_type": "PAYLOAD", "criticality_score": 9.0, "last_updated": "2026-06-12T12:52:23.908888+00:00", "maneuver_count": 0, "owner": "N/A"}, "28": {"norad_id": "39153", "name": "CUBEBUG 1", "tle1": "1 39153U 13018D   26162.95555868  .00002397  00000-0  21216-3 0  9998", "tle2": "2 39153  98.1656 322.6647 0011721 161.0197 199.1462 14.97268975710283", "object_type": "PAYLOAD", "criticality_score": 9.0, "last_updated": "2026-06-12T12:52:23.908888+00:00", "maneuver_count": 0, "owner": "N/A"}, "29": {"norad_id": "39091", "name": "BRITE-A TUGSAT-1", "tle1": "1 39091U 13009F   26162.42702338  .00000141  00000-0  62670-4 0  9992", "tle2": "2 39091  98.3993 342.0054 0008992 255.9460 104.0727 14.36539758696229", "object_type": "PAYLOAD", "criticality_score": 9.0, "last_updated": "2026-06-12T12:52:23.908888+00:00", "maneuver_count": 0, "owner": "N/A"}, "30": {"norad_id": "39087", "name": "AAUSAT3", "tle1": "1 39087U 13009B   26162.48264156  .00000528  00000-0  18136-3 0  9990", "tle2": "2 39087  98.3701 346.4066 0010443 224.8264 135.2082 14.39932280696357", "object_type": "PAYLOAD", "criticality_score": 9.0, "last_updated": "2026-06-12T12:52:23.908888+00:00", "maneuver_count": 0, "owner": "N/A"}, "57": {"norad_id": "39260", "name": "FENGYUN 3C", "tle1": "1 39260U 13052A   26162.95532124  .00000073  00000-0  58030-4 0  9999", "tle2": "2 39260  98.4976 137.0704 0015503  41.9911 318.2450 14.15753914657827", "object_type": "PAYLOAD", "criticality_score": 9.0, "last_updated": "2026-06-12T12:52:23.908888+00:00", "maneuver_count": 0, "owner": "N/A"}, "58": {"norad_id": "39090", "name": "STRAND 1", "tle1": "1 39090U 13009E   26162.48626012  .00000258  00000-0  10129-3 0  9991", "tle2": "2 39090  98.3921 342.8611 0007504 244.6927 115.3483 14.37160014696249", "object_type": "PAYLOAD", "criticality_score": 9.0, "last_updated": "2026-06-12T12:52:23.908888+00:00", "maneuver_count": 0, "owner": "N/A"}, "60": {"norad_id": "38340", "name": "HORYU 2", "tle1": "1 38340U 12025D   26162.60219413  .00002864  00000-0  29547-3 0  9991", "tle2": "2 38340  98.2166 295.3107 0007857 191.6042 168.4995 14.91035772747895", "object_type": "PAYLOAD", "criticality_score": 9.0, "last_updated": "2026-06-12T12:52:23.908888+00:00", "maneuver_count": 0, "owner": "N/A"}, "117": {"norad_id": "39265", "name": "CASSIOPE", "tle1": "1 39265U 13055A   26162.91282772  .00043419 -54648-6  47636-3 0  9998", "tle2": "2 39265  80.9146  73.1230 0294693  80.1366 283.2997 15.24695920666863", "object_type": "PAYLOAD", "criticality_score": 9.0, "last_updated": "2026-06-12T12:52:23.908888+00:00", "maneuver_count": 0, "owner": "N/A"}, "118": {"norad_id": "39151", "name": "NEE 01 PEGASUS", "tle1": "1 39151U 13018B   26162.37036833  .00001781  00000-0  17424-3 0  9990", "tle2": "2 39151  98.1214 306.3290 0012644 177.4473 182.6812 14.93633706709836", "object_type": "PAYLOAD", "criticality_score": 9.0, "last_updated": "2026-06-12T12:52:23.908888+00:00", "maneuver_count": 0, "owner": "N/A"}, "119": {"norad_id": "39092", "name": "BRITE-U UNIBRITE", "tle1": "1 39092U 13009G   26162.43877132  .00000155  00000-0  67410-4 0  9991", "tle2": "2 39092  98.4032 342.1265 0007931 251.7028 108.3296 14.36410969696169", "object_type": "PAYLOAD", "criticality_score": 9.0, "last_updated": "2026-06-12T12:52:23.908888+00:00", "maneuver_count": 0, "owner": "N/A"}, "120": {"norad_id": "39086", "name": "SARAL", "tle1": "1 39086U 13009A   26162.94327049  .00000083  00000-0  46582-4 0  9994", "tle2": "2 39086  98.5557 349.5770 0000985 338.2856  21.8286 14.32854655694851", "object_type": "PAYLOAD", "criticality_score": 9.0, "last_updated": "2026-06-12T12:52:23.908888+00:00", "maneuver_count": 0, "owner": "N/A"}, "121": {"norad_id": "38771", "name": "METOP-B", "tle1": "1 38771U 12049A   26162.91027348  .00000082  00000-0  57530-4 0  9997", "tle2": "2 38771  98.6506 214.5146 0002553  32.3553 327.7780 14.21431261712516", "object_type": "PAYLOAD", "criticality_score": 9.0, "last_updated": "2026-06-12T12:52:23.908888+00:00", "maneuver_count": 0, "owner": "N/A"}, "198": {"norad_id": "38761", "name": "CSSWE", "tle1": "1 38761U 12048D   26162.59359286  .00024311  00000-0  50852-3 0  9998", "tle2": "2 38761  64.6613 112.4357 0047986 175.4828 184.6753 15.44191175115532", "object_type": "PAYLOAD", "criticality_score": 9.0, "last_updated": "2026-06-12T12:52:23.908888+00:00", "maneuver_count": 0, "owner": "N/A"}, "201": {"norad_id": "38763", "name": "CP5", "tle1": "1 38763U 12048F   26162.43772422  .00008362  00000-0  28842-3 0  9996", "tle2": "2 38763  64.6431 171.5872 0079364 178.1546 181.9892 15.27636018115885", "object_type": "PAYLOAD", "criticality_score": 9.0, "last_updated": "2026-06-12T12:52:23.908888+00:00", "maneuver_count": 0, "owner": "N/A"}, "210": {"norad_id": "39152", "name": "TURKSAT 3U", "tle1": "1 39152U 13018C   26162.93240596  .00003595  00000-0  32193-3 0  9991", "tle2": "2 39152  97.7928 253.7791 0013575 116.0122 244.2499 14.96394493710309", "object_type": "PAYLOAD", "criticality_score": 9.0, "last_updated": "2026-06-12T12:52:23.908888+00:00", "maneuver_count": 0, "owner": "N/A"}, "258": {"norad_id": "39159", "name": "PROBA V", "tle1": "1 39159U 13021A   26162.91808134  .00000058  00000-0  43411-4 0  9995", "tle2": "2 39159  98.3582 141.7849 0004935 135.9926 224.1647 14.23595922680365", "object_type": "PAYLOAD", "criticality_score": 9.0, "last_updated": "2026-06-12T12:52:23.908888+00:00", "maneuver_count": 0, "owner": "N/A"}, "266": {"norad_id": "39133", "name": "AIST 2", "tle1": "1 39133U 13015D   26162.94929547  .00005481  00000-0  21762-3 0  9994", "tle2": "2 39133  64.8696 274.4584 0018972 246.7017 113.2117 15.26246778723105", "object_type": "PAYLOAD", "criticality_score": 9.0, "last_updated": "2026-06-12T12:52:23.908888+00:00", "maneuver_count": 0, "owner": "N/A"}, "373": {"norad_id": "39416", "name": "APRIZESAT 7", "tle1": "1 39416U 13066A   26162.85419509  .00000725  00000-0  77272-4 0  9990", "tle2": "2 39416  97.7708 116.1509 0034607 227.3675 132.4625 14.91552666680437", "object_type": "PAYLOAD", "criticality_score": 9.0, "last_updated": "2026-06-12T12:52:23.908888+00:00", "maneuver_count": 0, "owner": "N/A"}, "374": {"norad_id": "39425", "name": "APRIZESAT 8", "tle1": "1 39425U 13066K   26162.82780161  .00000858  00000-0  98865-4 0  9990", "tle2": "2 39425  97.8220 110.3705 0044648 304.7478  54.9538 14.87642384678876", "object_type": "PAYLOAD", "criticality_score": 9.0, "last_updated": "2026-06-12T12:52:23.908888+00:00", "maneuver_count": 0, "owner": "N/A"}, "434": {"norad_id": "38860", "name": "SJ-9A", "tle1": "1 38860U 12056A   26162.91037225  .00001030  00000-0  12490-3 0  9998", "tle2": "2 38860  97.6706 135.0527 0023950 275.2288  84.6194 14.85469132698804", "object_type": "PAYLOAD", "criticality_score": 9.0, "last_updated": "2026-06-12T12:52:23.908888+00:00", "maneuver_count": 0, "owner": "N/A"}, "471": {"norad_id": "37849", "name": "NPP", "tle1": "1 37849U 11061A   26162.98360067  .00000039  00000-0  39310-4 0  9998", "tle2": "2 37849  98.7954 103.8952 0001821  18.5029 341.6213 14.19516304757700", "object_type": "PAYLOAD", "criticality_score": 9.0, "last_updated": "2026-06-12T12:52:23.908888+00:00", "maneuver_count": 0, "owner": "N/A"}, "531": {"norad_id": "37875", "name": "YAOGAN 12", "tle1": "1 37875U 11066B   26162.95631529  .00006255  00000-0  24178-3 0  9994", "tle2": "2 37875  97.1156 201.7697 0008245 237.9866 122.0572 15.26540160811248", "object_type": "PAYLOAD", "criticality_score": 9.0, "last_updated": "2026-06-12T12:52:23.908888+00:00", "maneuver_count": 0, "owner": "N/A"}, "537": {"norad_id": "39227", "name": "KOMPSAT 5", "tle1": "1 39227U 13042A   26162.97835128  .00001582  00000-0  11740-3 0  9995", "tle2": "2 39227  97.6216 349.7528 0004848 133.9411 226.2215 15.04479060703073", "object_type": "PAYLOAD", "criticality_score": 9.0, "last_updated": "2026-06-12T12:52:23.908888+00:00", "maneuver_count": 0, "owner": "N/A"}, "592": {"norad_id": "39059", "name": "COSMOS 2484", "tle1": "1 39059U 13001C   26162.91399689 -.00000017  00000-0 -19192-3 0  9997", "tle2": "2 39059  82.5022 225.1706 0027077  47.8454 312.4920 12.42938739607906", "object_type": "PAYLOAD", "criticality_score": 9.0, "last_updated": "2026-06-12T12:52:23.908888+00:00", "maneuver_count": 0, "owner": "N/A"}, "593": {"norad_id": "39249", "name": "GONETS M 05", "tle1": "1 39249U 13048A   26162.96311523  .00000023  00000-0  97975-4 0  9996", "tle2": "2 39249  82.4835 346.6405 0015888 222.3393 137.6462 12.42891545578236", "object_type": "PAYLOAD", "criticality_score": 9.0, "last_updated": "2026-06-12T12:52:23.908888+00:00", "maneuver_count": 0, "owner": "N/A"}, "594": {"norad_id": "39251", "name": "GONETS M 07", "tle1": "1 39251U 13048C   26162.92616818  .00000065  00000-0  40062-3 0  9990", "tle2": "2 39251  82.4903 349.5831 0016683 223.8490 136.1266 12.42914562578183", "object_type": "PAYLOAD", "criticality_score": 9.0, "last_updated": "2026-06-12T12:52:23.908888+00:00", "maneuver_count": 0, "owner": "N/A"}, "639": {"norad_id": "39150", "name": "GAOFEN 1", "tle1": "1 39150U 13018A   26162.98046037  .00000155  00000-0  29545-4 0  9995", "tle2": "2 39150  97.9097 235.1539 0015742 284.8038  75.1428 14.76531033707476", "object_type": "PAYLOAD", "criticality_score": 9.0, "last_updated": "2026-06-12T12:52:23.908888+00:00", "maneuver_count": 0, "owner": "N/A"}, "645": {"norad_id": "38338", "name": "KOMPSAT 3", "tle1": "1 38338U 12025B   26162.96883877  .00000345  00000-0  77787-4 0  9990", "tle2": "2 38338  98.1176 120.5189 0006473 122.6159 237.5668 14.62201555750584", "object_type": "PAYLOAD", "criticality_score": 9.0, "last_updated": "2026-06-12T12:52:23.908888+00:00", "maneuver_count": 0, "owner": "N/A"}, "658": {"norad_id": "38251", "name": "BEIDOU 13", "tle1": "1 38251U 12018B   26162.21442420 -.00000065  00000-0  00000-0 0  9999", "tle2": "2 38251  55.6637 304.2915 0011155 276.7325  83.1254  1.86229738 95836", "object_type": "PAYLOAD", "criticality_score": 9.0, "last_updated": "2026-06-12T12:52:23.908888+00:00", "maneuver_count": 0, "owner": "N/A"}}}